{
  "type": "FeatureCollection",
  "features": [
    {
      "type": "Feature",
      "properties": {
        "norad_id": 66822,
        "name": "STARLINK-35958",
        "group": "last-30-days",
        "lat": -61.76837243509342,
        "lon": 33.839322607468326,
        "alt_km": 413.99093002180325,
        "timestamp": "2025-12-22T16:55:16.167670+00:00",
        "meta_object_name": "STARLINK-35958",
        "meta_object_id": "2025-280B",
        "meta_epoch": "2025-12-22T06:00:02.000160",
        "meta_mean_motion": 15.52511886,
        "meta_eccentricity": 0.0003284,
        "meta_inclination": 69.9998,
        "meta_ra_of_asc_node": 172.3666,
        "meta_arg_of_pericenter": 270.463,
        "meta_mean_anomaly": 316.8079,
        "meta_ephemeris_type": 0,
        "meta_classification_type": "U",
        "meta_norad_cat_id": 66822,
        "meta_element_set_no": 999,
        "meta_rev_at_epoch": 442,
        "meta_bstar": -0.00077698812,
        "meta_mean_motion_dot": -0.00047671,
        "meta_mean_motion_ddot": 0,
        "tle_line1": "1 66822U 25280B   25356.25002315 -.00047671  00000+0 -77699-3 0  9997",
        "tle_line2": "2 66822  69.9998 172.3666 0003284 270.4630 316.8079 15.52511886  4422"
      },
      "geometry": {
        "type": "Point",
        "coordinates": [
          33.839322607468326,
          -61.76837243509342
        ]
      }
    },
    {
      "type": "Feature",
      "properties": {
        "norad_id": 66823,
        "name": "STARLINK-35957",
        "group": "last-30-days",
        "lat": -63.060762927320226,
        "lon": 36.90267889341014,
        "alt_km": 413.7523763866666,
        "timestamp": "2025-12-22T16:55:16.167681+00:00",
        "meta_object_name": "STARLINK-35957",
        "meta_object_id": "2025-280C",
        "meta_epoch": "2025-12-22T06:00:02.000160",
        "meta_mean_motion": 15.52428614,
        "meta_eccentricity": 0.00034085,
        "meta_inclination": 69.9997,
        "meta_ra_of_asc_node": 172.3629,
        "meta_arg_of_pericenter": 267.4423,
        "meta_mean_anomaly": 321.7864,
        "meta_ephemeris_type": 0,
        "meta_classification_type": "U",
        "meta_norad_cat_id": 66823,
        "meta_element_set_no": 999,
        "meta_rev_at_epoch": 442,
        "meta_bstar": 0.0014006618,
        "meta_mean_motion_dot": 0.00086667,
        "meta_mean_motion_ddot": 0,
        "tle_line1": "1 66823U 25280C   25356.25002315  .00086667  00000+0  14007-2 0  9997",
        "tle_line2": "2 66823  69.9997 172.3629 0003408 267.4423 321.7864 15.52428614  4428"
      },
      "geometry": {
        "type": "Point",
        "coordinates": [
          36.90267889341014,
          -63.060762927320226
        ]
      }
    },
    {
      "type": "Feature",
      "properties": {
        "norad_id": 66824,
        "name": "STARLINK-35896",
        "group": "last-30-days",
        "lat": -64.27357153188345,
        "lon": 40.2228756221318,
        "alt_km": 413.8814720078399,
        "timestamp": "2025-12-22T16:55:16.167691+00:00",
        "meta_object_name": "STARLINK-35896",
        "meta_object_id": "2025-280D",
        "meta_epoch": "2025-12-22T06:00:02.000160",
        "meta_mean_motion": 15.52513575,
        "meta_eccentricity": 0.00034612,
        "meta_inclination": 69.9998,
        "meta_ra_of_asc_node": 172.3617,
        "meta_arg_of_pericenter": 271.5849,
        "meta_mean_anomaly": 319.5209,
        "meta_ephemeris_type": 0,
        "meta_classification_type": "U",
        "meta_norad_cat_id": 66824,
        "meta_element_set_no": 999,
        "meta_rev_at_epoch": 442,
        "meta_bstar": -0.00083770592,
        "meta_mean_motion_dot": -0.00051364,
        "meta_mean_motion_ddot": 0,
        "tle_line1": "1 66824U 25280D   25356.25002315 -.00051364  00000+0 -83771-3 0  9991",
        "tle_line2": "2 66824  69.9998 172.3617 0003461 271.5849 319.5209 15.52513575  4423"
      },
      "geometry": {
        "type": "Point",
        "coordinates": [
          40.2228756221318,
          -64.27357153188345
        ]
      }
    },
    {
      "type": "Feature",
      "properties": {
        "norad_id": 66825,
        "name": "STARLINK-35476",
        "group": "last-30-days",
        "lat": -65.41157586672867,
        "lon": 43.86162790999213,
        "alt_km": 413.9716250995525,
        "timestamp": "2025-12-22T16:55:16.167701+00:00",
        "meta_object_name": "STARLINK-35476",
        "meta_object_id": "2025-280E",
        "meta_epoch": "2025-12-22T06:00:02.000160",
        "meta_mean_motion": 15.52515174,
        "meta_eccentricity": 0.00032751,
        "meta_inclination": 69.9998,
        "meta_ra_of_asc_node": 172.3591,
        "meta_arg_of_pericenter": 268.8602,
        "meta_mean_anomaly": 324.1664,
        "meta_ephemeris_type": 0,
        "meta_classification_type": "U",
        "meta_norad_cat_id": 66825,
        "meta_element_set_no": 999,
        "meta_rev_at_epoch": 427,
        "meta_bstar": -0.0008817538,
        "meta_mean_motion_dot": -0.00054039,
        "meta_mean_motion_ddot": 0,
        "tle_line1": "1 66825U 25280E   25356.25002315 -.00054039  00000+0 -88175-3 0  9997",
        "tle_line2": "2 66825  69.9998 172.3591 0003275 268.8602 324.1664 15.52515174  4271"
      },
      "geometry": {
        "type": "Point",
        "coordinates": [
          43.86162790999213,
          -65.41157586672867
        ]
      }
    },
    {
      "type": "Feature",
      "properties": {
        "norad_id": 66826,
        "name": "STARLINK-35898",
        "group": "last-30-days",
        "lat": -66.44756222262764,
        "lon": 47.78693245760122,
        "alt_km": 413.792363275521,
        "timestamp": "2025-12-22T16:55:16.167711+00:00",
        "meta_object_name": "STARLINK-35898",
        "meta_object_id": "2025-280F",
        "meta_epoch": "2025-12-22T06:00:02.000160",
        "meta_mean_motion": 15.52430224,
        "meta_eccentricity": 0.00033723,
        "meta_inclination": 69.9999,
        "meta_ra_of_asc_node": 172.3556,
        "meta_arg_of_pericenter": 270.8381,
        "meta_mean_anomaly": 324.1359,
        "meta_ephemeris_type": 0,
        "meta_classification_type": "U",
        "meta_norad_cat_id": 66826,
        "meta_element_set_no": 999,
        "meta_rev_at_epoch": 442,
        "meta_bstar": 0.0013830565,
        "meta_mean_motion_dot": 0.00085568,
        "meta_mean_motion_ddot": 0,
        "tle_line1": "1 66826U 25280F   25356.25002315  .00085568  00000+0  13831-2 0  9993",
        "tle_line2": "2 66826  69.9999 172.3556 0003372 270.8381 324.1359 15.52430224  4429"
      },
      "geometry": {
        "type": "Point",
        "coordinates": [
          47.78693245760122,
          -66.44756222262764
        ]
      }
    },
    {
      "type": "Feature",
      "properties": {
        "norad_id": 66827,
        "name": "STARLINK-35959",
        "group": "last-30-days",
        "lat": -67.3802200532002,
        "lon": 52.05470639896779,
        "alt_km": 414.0681470282416,
        "timestamp": "2025-12-22T16:55:16.167721+00:00",
        "meta_object_name": "STARLINK-35959",
        "meta_object_id": "2025-280G",
        "meta_epoch": "2025-12-22T06:00:02.000160",
        "meta_mean_motion": 15.5251885,
        "meta_eccentricity": 0.00031596,
        "meta_inclination": 69.9999,
        "meta_ra_of_asc_node": 172.3543,
        "meta_arg_of_pericenter": 272.2159,
        "meta_mean_anomaly": 324.6394,
        "meta_ephemeris_type": 0,
        "meta_classification_type": "U",
        "meta_norad_cat_id": 66827,
        "meta_element_set_no": 999,
        "meta_rev_at_epoch": 442,
        "meta_bstar": -0.00095875812,
        "meta_mean_motion_dot": -0.00058716,
        "meta_mean_motion_ddot": 0,
        "tle_line1": "1 66827U 25280G   25356.25002315 -.00058716  00000+0 -95876-3 0  9991",
        "tle_line2": "2 66827  69.9999 172.3543 0003159 272.2159 324.6394 15.52518850  4424"
      },
      "geometry": {
        "type": "Point",
        "coordinates": [
          52.05470639896779,
          -67.3802200532002
        ]
      }
    },
    {
      "type": "Feature",
      "properties": {
        "norad_id": 66828,
        "name": "STARLINK-35982",
        "group": "last-30-days",
        "lat": -68.86395280770283,
        "lon": 61.52285357033522,
        "alt_km": 414.0416147245951,
        "timestamp": "2025-12-22T16:55:16.167730+00:00",
        "meta_object_name": "STARLINK-35982",
        "meta_object_id": "2025-280H",
        "meta_epoch": "2025-12-22T06:00:02.000160",
        "meta_mean_motion": 15.52517147,
        "meta_eccentricity": 0.00031927,
        "meta_inclination": 69.9999,
        "meta_ra_of_asc_node": 172.3498,
        "meta_arg_of_pericenter": 273.3495,
        "meta_mean_anomaly": 327.3383,
        "meta_ephemeris_type": 0,
        "meta_classification_type": "U",
        "meta_norad_cat_id": 66828,
        "meta_element_set_no": 999,
        "meta_rev_at_epoch": 442,
        "meta_bstar": -0.00093119193,
        "meta_mean_motion_dot": -0.00057042,
        "meta_mean_motion_ddot": 0,
        "tle_line1": "1 66828U 25280H   25356.25002315 -.00057042  00000+0 -93119-3 0  9991",
        "tle_line2": "2 66828  69.9999 172.3498 0003192 273.3495 327.3383 15.52517147  4422"
      },
      "geometry": {
        "type": "Point",
        "coordinates": [
          61.52285357033522,
          -68.86395280770283
        ]
      }
    }
  ]
}